#dP2023  8 14  6  0  0.00000000      96 __u+U ITR00 EXT  IAC
## 2275 108000.00000000   900.00000000 60170 0.2500000000000
+  118   C06C07C08C09C10C11C12C13C14C16C19C20C21C22C23C24C25
+        C26C27C28C29C30C32C33C34C35C36C37C38C39C40C41C42C43
+        C44C45C46E02E03E04E05E07E08E09E10E11E12E13E14E15E18
+        E19E21E24E25E26E27E30E31E33E34E36G01G02G03G04G05G06
+        G07G08G09G10G11G12G13G14G15G16G17G18G19G20G21G23G24
+        G25G26G27G28G29G30G31G32J02J03J04R01R02R03R04R05R07
+        R08R09R11R12R13R14R15R16R17R18R19R20R21R22R24R25  0
++         9  9 10 10  9  9  8  8  8 10  9  8  8  8  8  9  8
++         7  8  7  8  8  8  6  8 10  8  7 10  8  9  6  9  9
++        10  8  7  7  9  7  8  7  8  8  7  7  7  6  7  7  7
++         9  7  8  7  7  7  7  7  8  7  7  7  7  7  8  8  7
++         8  6  8  7  7  7  8  7  8  7  7  7  8  7  7  8  7
++         7  7  6  8  9  7  6  8 10  8  9  8  8  8  8  9  8
++         7  7 10  8  6  7  6  7  7  8  9  8  7  9  8  9  0
%c M  cc GPS ccc cccc cccc cccc cccc ccccc ccccc ccccc ccccc
%c cc cc ccc ccc cccc cccc cccc cccc ccccc ccccc ccccc ccccc
%f  0.0000000  0.000000000  0.00000000000  0.000000000000000
%f  0.0000000  0.000000000  0.00000000000  0.000000000000000
%i    0    0    0    0      0      0      0      0         0
%i    0    0    0    0      0      0      0      0         0
/* IAC                                ULTRA-RAPID PREDICTION
/* S/V CLOCKS ARE ALIGNED TO GNSS TIME                      
/* G:C1WC2W R:C1PC2P E:C1XC5X C:C2IC6I J:C1CC2S             
/* PCV:IGS20_2247 OL/AL:FES2004  NONE     YN ORB:CoN CLK:CoN
*  2023 08 15  2 30  0.00000000
PC06 -15911.942232  24500.202982 -30479.731920    884.323536
PC07 -11458.376506  40413.130836  -1633.549671     68.446595
PC08   1484.377648  28428.424116  31157.844024    389.319143
PC09  -6494.036801  24529.135995 -33328.482420    291.207996
PC10  -5856.651411  41215.305306   4685.156854   -145.900127
PC11 -25624.919311   2326.280394 -10701.700153    779.785601
PC12 -12807.806859 -10786.383612 -22284.883651    871.611342
PC13   7010.553226  32018.728645  26814.670981    334.435929
PC14 -15719.705394   -995.066307  23042.343055    229.376103
PC16 -18850.502927  23535.753889 -29337.301562    -36.031460
PC19  15479.679474 -10187.434340 -20855.849424   -960.371219
PC20  13880.009730   9946.817200 -22061.520978    360.788957
PC21  -3670.575550 -25825.126692   9960.923209   -949.591460
PC22   8312.805924 -25553.693262  -7590.814765   -351.008721
PC23  -7478.148762  14708.829514 -22492.384339   -904.920706
PC24 -23175.860373 -15354.401808  -2277.890875    284.902988
PC25 -21245.943202    818.224784 -18069.392363    189.648001
PC26 -12462.611511 -20930.455326  13572.614548   -163.365681
PC27   4152.277203  15482.870212  22821.888021    184.569363
PC28 -14219.003351  17934.103717  15963.635922    138.034394
PC29  25830.672672 -10375.976245   2005.686280    161.026371
PC30  20882.497032   4236.402864  18004.349261     -3.497862
PC32   3806.151178  25821.822269  -9846.940973   -532.261950
PC33 -15464.343740  10112.186339  20903.192437   -937.595848
PC34 -21812.748556  -3219.120631 -17126.828782    237.361789
PC35  13752.510281 -18473.013117 -15751.621851    567.566179
PC36  21668.010477    381.388496  17614.515772   -275.981419
PC37  11197.937226  21217.439033 -14254.707378   -807.651198
PC38  -6796.105769  24726.529294  33522.410774     98.234285
PC39 -23984.414609  23598.822938 -25510.492948     -4.323738
PC40 -18033.668827  37650.312869  -4710.767704    -32.939102
PC41  -8654.760558  25206.240296   8303.493053   -888.395029
PC42 -13464.510280 -11553.055158  21583.371413   -577.606340
PC43 -26005.781317   9735.618016  -2859.569204     35.305175
PC44  -4620.256422 -15532.573355 -22731.701144    200.386683
PC45   6931.283883 -14936.681468  22534.586468    -14.092432
PC46  23545.191442  14586.878724   3576.219603    -76.623779
PE02  -8287.181985  19136.268875 -21007.741290     55.692873
PE03 -18069.542715  23409.153723  -1109.075611    -46.054861
PE04   3043.004333 -23464.761166  17793.297154   -189.586962
PE05 -22680.474061   9686.068018  16367.304665      9.099489
PE07  13757.698754   9984.443020 -24229.777391    -67.445700
PE08  -3464.830278  23553.433870 -17583.338182   -130.473118
PE09 -13527.699353 -10046.250923  24336.091384   -120.764980
PE10 -16148.498219 -15267.017986 -19558.177491   -556.174123
PE11 -24795.989315 -11471.520363 -11411.870390   2726.157293
PE12  -5803.898800 -16560.774370 -23847.461925   -658.370418
PE13  24359.525081  11724.406169  12055.648386    -19.434568
PE14  19397.695292 -24709.896001  -3682.652301    311.564712
PE15   5382.795719  16471.724587  23997.407568    -45.181549
PE18 -18711.561559  15769.472375  -2626.026897    414.632031
PE19  19484.068863 -22242.401232  -1363.091187  -1848.774315
PE21  17571.257347    148.374255  23825.446738   -546.711643
PE24 -16921.093834 -20861.187577 -12424.825796   -266.322897
PE25 -17660.169333   -559.744440 -23736.403785     -0.265909
PE26  28656.497079   -304.463498  -7431.559583    193.056374
PE27  17171.347391  20341.786944  12956.937663   -124.794158
PE30   6228.871630  28345.630056  -5848.097457   -418.721852
PE31  -6645.161815 -28329.210742   5445.393497     -2.695530
PE33  17098.676801 -11208.330435 -21413.808285     -1.534256
PE34 -16436.876199  11546.850659  21724.505232    -61.592929
PE36 -28815.684452   -190.331981   6763.114714   -101.182623
PG01 -16721.886113 -13974.028878 -15761.211675    168.571019
PG02 -10755.151691 -14349.535123 -19143.646168   -565.356096
PG03 -12716.617866 -22323.950148   6821.977110   -186.643319
PG04  -8979.540565 -12471.705240  21661.990427    125.905609
PG05   4114.226745  24856.967121   8053.393202   -138.842841
PG06 -20390.908483   6595.706683  15811.406826    566.121078
PG07 -26002.877046  -6386.354835   2083.961661     95.544063
PG08    333.120960 -19935.068851 -17423.753293   -137.235536
PG09 -16226.291423  -3195.390782  20711.609496    -86.378701
PG10  13663.391502  -5490.044843 -21920.017939    -49.317849
PG11  -6802.566590  13787.977497  21662.916649   -321.339145
PG12   9163.080560  24726.649554   3215.906025   -413.007182
PG13  -9952.097190  20825.497912 -13137.501739    560.218463
PG14 -15553.625141   1936.729181 -21432.810926    154.324293
PG15   3126.345499  19755.197885 -17833.653733     67.732331
PG16   2171.407251 -23476.682988  11461.966147   -468.101928
PG17 -21252.883454  11812.849626 -10379.684938    722.730132
PG18  26235.563581   4577.736125  -1129.430363   -382.832345
PG19 -20645.398187  16042.091162  -3711.081348    357.792180
PG20  -2698.425517  20253.198614  17103.159462    417.185000
PG21  -8616.700898 -14825.996070 -19981.012482    150.711472
PG23  16877.282108   8071.425433 -18915.732610     55.218842
PG24  12970.678756  14846.238345 -18354.243941   -289.998222
PG25  16326.555277  15514.622003  13969.976243    462.210822
PG26   8521.651392 -16020.743081  19163.632304    232.895193
PG27  11040.309613 -22370.694516  -8741.297503    -22.167490
PG28  21628.775886  -6582.137106  13919.440946     76.063303
PG29  15415.522003   4734.546037  21076.032058   -607.776093
PG30 -25478.869922    947.892290  -7789.858485   -496.368811
PG31  13034.563143 -11692.569582  19906.307679   -221.848348
PG32  19995.538544 -15406.886930  -7748.681341   -540.721276
PJ02 -20841.243441  24768.182401 -22366.770630     -2.570265
PJ03 -30261.770055  25307.434500  19863.503004     -1.072897
PJ04 -27192.983326  30164.880049  17492.237664     70.492857
PR01  12600.509797  -8872.223978 -20333.669710     63.511222
PR02  10269.190098 -22478.481628  -6140.806501    -22.528401
PR03   1616.342311 -22850.306196  11201.019160     83.320513
PR04  -7335.331863 -10613.899897  22026.715991    198.732442
PR05 -12597.470912   7318.631272  20952.247493    117.350910
PR07  -1266.126140  22585.527024 -11803.208405     62.452740
PR08   7544.530533  10466.102808 -21956.128570    -72.121130
PR09  -4088.375154  11644.968795 -22289.471555    136.746692
PR11  18490.493273  17258.807099   3241.862987   -132.637914
PR12  16238.982432   3792.832010  19337.757513     30.186024
PR13   5662.004379  -9946.735167  22788.872590    -38.167992
PR14 -10244.868848 -19724.784571  12554.706073     25.090908
PR15 -18631.483856 -16831.887902  -4497.882802     86.999111
PR16 -16324.220726  -4078.370035 -19170.057294     17.709836
PR17  -1371.789344 -10510.833207 -23197.116196      8.927952
PR18 -17762.997654  -4466.412737 -17761.854893     96.809275
PR19 -24963.251436   2334.119270  -4663.515630   -243.538551
PR20 -17695.733878  10057.336966  15399.741306    -98.325219
PR21   2592.862242  10168.482768  23246.295845    -30.444638
PR22  18371.480226   4929.538320  17016.283871    113.174578
PR24  16761.736894 -11113.577646 -15692.787387    -20.519644
PR25    972.914235  10869.370753  23057.887560     42.601168
EOF
